[{"OBJECT_NAME":"STARLINK-2564","OBJECT_ID":"2021-036J","EPOCH":"2026-03-09T09:42:02.625984","MEAN_MOTION":15.30187265,"ECCENTRICITY":0.00015457,"INCLINATION":53.1593,"RA_OF_ASC_NODE":77.1004,"ARG_OF_PERICENTER":91.2892,"MEAN_ANOMALY":268.8285,"EPHEMERIS_TYPE":0,"CLASSIFICATION_TYPE":"U","NORAD_CAT_ID":48284,"ELEMENT_SET_NO":999,"REV_AT_EPOCH":26835,"BSTAR":-7.3525621e-5,"MEAN_MOTION_DOT":-2.535e-5,"MEAN_MOTION_DDOT":0},{"OBJECT_NAME":"KUIPER-00276","OBJECT_ID":"2026-030AG","EPOCH":"2026-03-09T22:00:01.999584","MEAN_MOTION":15.30162454,"ECCENTRICITY":0.00186471,"INCLINATION":51.8824,"RA_OF_ASC_NODE":218.7283,"ARG_OF_PERICENTER":66.9346,"MEAN_ANOMALY":101.1527,"EPHEMERIS_TYPE":0,"CLASSIFICATION_TYPE":"U","NORAD_CAT_ID":67794,"ELEMENT_SET_NO":999,"REV_AT_EPOCH":482,"BSTAR":0.0021152378,"MEAN_MOTION_DOT":0.00063116,"MEAN_MOTION_DDOT":0}]
